CCSDS_OMM_VERS = 2.0
CREATION_DATE  = 
ORIGINATOR     = 

OBJECT_NAME    = TWILIGHT F
OBJECT_ID      = 2026-004F
CENTER_NAME    = EARTH
REF_FRAME      = TEME
TIME_SYSTEM    = UTC
MEAN_ELEMENT_THEORY = SGP/SGP4

EPOCH          = 2026-01-25T06:32:08.441952
MEAN_MOTION    = 14.87210902
ECCENTRICITY   = .00067698
INCLINATION    = 97.8023
RA_OF_ASC_NODE = 26.1996
ARG_OF_PERICENTER = 236.5199
MEAN_ANOMALY   = 123.5371

EPHEMERIS_TYPE = 0
CLASSIFICATION_TYPE = U
NORAD_CAT_ID   = 67368
ELEMENT_SET_NO = 999
REV_AT_EPOCH   = 204
BSTAR          = .67811829E-3
MEAN_MOTION_DOT = .6055E-4
MEAN_MOTION_DDOT = 0

CCSDS_OMM_VERS = 2.0
CREATION_DATE  = 
ORIGINATOR     = 

OBJECT_NAME    = TWILIGHT G
OBJECT_ID      = 2026-004G
CENTER_NAME    = EARTH
REF_FRAME      = TEME
TIME_SYSTEM    = UTC
MEAN_ELEMENT_THEORY = SGP/SGP4

EPOCH          = 2026-01-25T06:31:11.655552
MEAN_MOTION    = 14.87234451
ECCENTRICITY   = .00058532
INCLINATION    = 97.7953
RA_OF_ASC_NODE = 26.1982
ARG_OF_PERICENTER = 251.9574
MEAN_ANOMALY   = 108.1005

EPHEMERIS_TYPE = 0
CLASSIFICATION_TYPE = U
NORAD_CAT_ID   = 67369
ELEMENT_SET_NO = 999
REV_AT_EPOCH   = 204
BSTAR          = .48680686E-3
MEAN_MOTION_DOT = .4333E-4
MEAN_MOTION_DDOT = 0

CCSDS_OMM_VERS = 2.0
CREATION_DATE  = 
ORIGINATOR     = 

OBJECT_NAME    = TWILIGHT H
OBJECT_ID      = 2026-004H
CENTER_NAME    = EARTH
REF_FRAME      = TEME
TIME_SYSTEM    = UTC
MEAN_ELEMENT_THEORY = SGP/SGP4

EPOCH          = 2026-01-25T06:30:35.605152
MEAN_MOTION    = 14.87291933
ECCENTRICITY   = .00055345
INCLINATION    = 97.7952
RA_OF_ASC_NODE = 26.1982
ARG_OF_PERICENTER = 252.8183
MEAN_ANOMALY   = 107.2427

EPHEMERIS_TYPE = 0
CLASSIFICATION_TYPE = U
NORAD_CAT_ID   = 67370
ELEMENT_SET_NO = 999
REV_AT_EPOCH   = 204
BSTAR          = .73868645E-3
MEAN_MOTION_DOT = .6614E-4
MEAN_MOTION_DDOT = 0

CCSDS_OMM_VERS = 2.0
CREATION_DATE  = 
ORIGINATOR     = 

OBJECT_NAME    = TWILIGHT J
OBJECT_ID      = 2026-004J
CENTER_NAME    = EARTH
REF_FRAME      = TEME
TIME_SYSTEM    = UTC
MEAN_ELEMENT_THEORY = SGP/SGP4

EPOCH          = 2026-01-25T06:26:17.488608
MEAN_MOTION    = 14.87667565
ECCENTRICITY   = .00046443
INCLINATION    = 97.7993
RA_OF_ASC_NODE = 26.2035
ARG_OF_PERICENTER = 235.1192
MEAN_ANOMALY   = 124.9588

EPHEMERIS_TYPE = 0
CLASSIFICATION_TYPE = U
NORAD_CAT_ID   = 67371
ELEMENT_SET_NO = 999
REV_AT_EPOCH   = 204
BSTAR          = .11160638E-2
MEAN_MOTION_DOT = .10118E-3
MEAN_MOTION_DDOT = 0

CCSDS_OMM_VERS = 2.0
CREATION_DATE  = 
ORIGINATOR     = 

OBJECT_NAME    = TWILIGHT K
OBJECT_ID      = 2026-004K
CENTER_NAME    = EARTH
REF_FRAME      = TEME
TIME_SYSTEM    = UTC
MEAN_ELEMENT_THEORY = SGP/SGP4

EPOCH          = 2026-01-25T06:21:57.285504
MEAN_MOTION    = 14.87934102
ECCENTRICITY   = .0003006
INCLINATION    = 97.7970
RA_OF_ASC_NODE = 26.2058
ARG_OF_PERICENTER = 228.2972
MEAN_ANOMALY   = 131.7988

EPHEMERIS_TYPE = 0
CLASSIFICATION_TYPE = U
NORAD_CAT_ID   = 67372
ELEMENT_SET_NO = 999
REV_AT_EPOCH   = 204
BSTAR          = .43409862E-3
MEAN_MOTION_DOT = .3924E-4
MEAN_MOTION_DDOT = 0

CCSDS_OMM_VERS = 2.0
CREATION_DATE  = 
ORIGINATOR     = 

OBJECT_NAME    = TWILIGHT L
OBJECT_ID      = 2026-004L
CENTER_NAME    = EARTH
REF_FRAME      = TEME
TIME_SYSTEM    = UTC
MEAN_ELEMENT_THEORY = SGP/SGP4

EPOCH          = 2026-01-25T06:27:08.079264
MEAN_MOTION    = 14.87539761
ECCENTRICITY   = .00046175
INCLINATION    = 97.7985
RA_OF_ASC_NODE = 26.2023
ARG_OF_PERICENTER = 240.5788
MEAN_ANOMALY   = 119.4967

EPHEMERIS_TYPE = 0
CLASSIFICATION_TYPE = U
NORAD_CAT_ID   = 67373
ELEMENT_SET_NO = 999
REV_AT_EPOCH   = 204
BSTAR          = .45514046E-3
MEAN_MOTION_DOT = .4077E-4
MEAN_MOTION_DDOT = 0

CCSDS_OMM_VERS = 2.0
CREATION_DATE  = 
ORIGINATOR     = 

OBJECT_NAME    = TWILIGHT M
OBJECT_ID      = 2026-004M
CENTER_NAME    = EARTH
REF_FRAME      = TEME
TIME_SYSTEM    = UTC
MEAN_ELEMENT_THEORY = SGP/SGP4

EPOCH          = 2026-01-25T06:22:56.245728
MEAN_MOTION    = 14.87883523
ECCENTRICITY   = .0003265
INCLINATION    = 97.7970
RA_OF_ASC_NODE = 26.2037
ARG_OF_PERICENTER = 229.3294
MEAN_ANOMALY   = 130.7639

EPHEMERIS_TYPE = 0
CLASSIFICATION_TYPE = U
NORAD_CAT_ID   = 67374
ELEMENT_SET_NO = 999
REV_AT_EPOCH   = 204
BSTAR          = .49871554E-3
MEAN_MOTION_DOT = .4511E-4
MEAN_MOTION_DDOT = 0

CCSDS_OMM_VERS = 2.0
CREATION_DATE  = 
ORIGINATOR     = 

OBJECT_NAME    = TWILIGHT N
OBJECT_ID      = 2026-004N
CENTER_NAME    = EARTH
REF_FRAME      = TEME
TIME_SYSTEM    = UTC
MEAN_ELEMENT_THEORY = SGP/SGP4

EPOCH          = 2026-01-25T06:22:34.968000
MEAN_MOTION    = 14.87908594
ECCENTRICITY   = .00038318
INCLINATION    = 97.8006
RA_OF_ASC_NODE = 26.2086
ARG_OF_PERICENTER = 222.9232
MEAN_ANOMALY   = 137.1686

EPHEMERIS_TYPE = 0
CLASSIFICATION_TYPE = U
NORAD_CAT_ID   = 67375
ELEMENT_SET_NO = 999
REV_AT_EPOCH   = 204
BSTAR          = .49009226E-3
MEAN_MOTION_DOT = .4435E-4
MEAN_MOTION_DDOT = 0

CCSDS_OMM_VERS = 2.0
CREATION_DATE  = 
ORIGINATOR     = 

OBJECT_NAME    = TWILIGHT P
OBJECT_ID      = 2026-004P
CENTER_NAME    = EARTH
REF_FRAME      = TEME
TIME_SYSTEM    = UTC
MEAN_ELEMENT_THEORY = SGP/SGP4

EPOCH          = 2026-01-25T06:24:29.765088
MEAN_MOTION    = 14.87760669
ECCENTRICITY   = .00041927
INCLINATION    = 97.8003
RA_OF_ASC_NODE = 26.2061
ARG_OF_PERICENTER = 229.6870
MEAN_ANOMALY   = 130.3981

EPHEMERIS_TYPE = 0
CLASSIFICATION_TYPE = U
NORAD_CAT_ID   = 67376
ELEMENT_SET_NO = 999
REV_AT_EPOCH   = 204
BSTAR          = .52201474E-3
MEAN_MOTION_DOT = .4711E-4
MEAN_MOTION_DDOT = 0

CCSDS_OMM_VERS = 2.0
CREATION_DATE  = 
ORIGINATOR     = 

OBJECT_NAME    = TWILIGHT Q
OBJECT_ID      = 2026-004Q
CENTER_NAME    = EARTH
REF_FRAME      = TEME
TIME_SYSTEM    = UTC
MEAN_ELEMENT_THEORY = SGP/SGP4

EPOCH          = 2026-01-25T06:22:24.431520
MEAN_MOTION    = 14.87920773
ECCENTRICITY   = .00036641
INCLINATION    = 97.8006
RA_OF_ASC_NODE = 26.2085
ARG_OF_PERICENTER = 222.4592
MEAN_ANOMALY   = 137.6342

EPHEMERIS_TYPE = 0
CLASSIFICATION_TYPE = U
NORAD_CAT_ID   = 67377
ELEMENT_SET_NO = 999
REV_AT_EPOCH   = 203
BSTAR          = .8190743E-3
MEAN_MOTION_DOT = .7454E-4
MEAN_MOTION_DDOT = 0

CCSDS_OMM_VERS = 2.0
CREATION_DATE  = 
ORIGINATOR     = 

OBJECT_NAME    = TWILIGHT R
OBJECT_ID      = 2026-004R
CENTER_NAME    = EARTH
REF_FRAME      = TEME
TIME_SYSTEM    = UTC
MEAN_ELEMENT_THEORY = SGP/SGP4

EPOCH          = 2026-01-25T06:25:28.875648
MEAN_MOTION    = 14.87683645
ECCENTRICITY   = .00036388
INCLINATION    = 97.7977
RA_OF_ASC_NODE = 26.2022
ARG_OF_PERICENTER = 240.9204
MEAN_ANOMALY   = 119.1649

EPHEMERIS_TYPE = 0
CLASSIFICATION_TYPE = U
NORAD_CAT_ID   = 67378
ELEMENT_SET_NO = 999
REV_AT_EPOCH   = 203
BSTAR          = .56420324E-3
MEAN_MOTION_DOT = .5086E-4
MEAN_MOTION_DDOT = 0

CCSDS_OMM_VERS = 2.0
CREATION_DATE  = 
ORIGINATOR     = 

OBJECT_NAME    = TWILIGHT S
OBJECT_ID      = 2026-004S
CENTER_NAME    = EARTH
REF_FRAME      = TEME
TIME_SYSTEM    = UTC
MEAN_ELEMENT_THEORY = SGP/SGP4

EPOCH          = 2026-01-25T06:25:19.127136
MEAN_MOTION    = 14.87694155
ECCENTRICITY   = .00041433
INCLINATION    = 97.7982
RA_OF_ASC_NODE = 26.2038
ARG_OF_PERICENTER = 236.2170
MEAN_ANOMALY   = 123.8652

EPHEMERIS_TYPE = 0
CLASSIFICATION_TYPE = U
NORAD_CAT_ID   = 67379
ELEMENT_SET_NO = 999
REV_AT_EPOCH   = 203
BSTAR          = .52111106E-3
MEAN_MOTION_DOT = .4695E-4
MEAN_MOTION_DDOT = 0

