TWILIGHT F              
1 67368U 26004F   26025.27231993  .00006055  00000+0  67812-3 0  9995
2 67368  97.8023  26.1996 0006769 236.5199 123.5371 14.87210902  2049
TWILIGHT G              
1 67369U 26004G   26025.27166268  .00004333  00000+0  48681-3 0  9998
2 67369  97.7953  26.1982 0005853 251.9574 108.1005 14.87234451  2045
TWILIGHT H              
1 67370U 26004H   26025.27124543  .00006614  00000+0  73869-3 0  9990
2 67370  97.7952  26.1982 0005534 252.8183 107.2427 14.87291933  2044
TWILIGHT J              
1 67371U 26004J   26025.26825797  .00010118  00000+0  11161-2 0  9999
2 67371  97.7993  26.2035 0004644 235.1192 124.9588 14.87667565  2047
TWILIGHT K              
1 67372U 26004K   26025.26524636  .00003924  00000+0  43410-3 0  9998
2 67372  97.7970  26.2058 0003006 228.2972 131.7988 14.87934102  2042
TWILIGHT L              
1 67373U 26004L   26025.26884351  .00004077  00000+0  45514-3 0  9999
2 67373  97.7985  26.2023 0004617 240.5788 119.4967 14.87539761  2044
TWILIGHT M              
1 67374U 26004M   26025.26592877  .00004511  00000+0  49872-3 0  9993
2 67374  97.7970  26.2037 0003265 229.3294 130.7639 14.87883523  2049
TWILIGHT N              
1 67375U 26004N   26025.26568250  .00004435  00000+0  49009-3 0  9999
2 67375  97.8006  26.2086 0003831 222.9232 137.1686 14.87908594  2044
TWILIGHT P              
1 67376U 26004P   26025.26701117  .00004711  00000+0  52201-3 0  9996
2 67376  97.8003  26.2061 0004192 229.6870 130.3981 14.87760669  2040
TWILIGHT Q              
1 67377U 26004Q   26025.26556055  .00007454  00000+0  81907-3 0  9998
2 67377  97.8006  26.2085 0003664 222.4592 137.6342 14.87920773  2039
TWILIGHT R              
1 67378U 26004R   26025.26769532  .00005086  00000+0  56420-3 0  9996
2 67378  97.7977  26.2022 0003638 240.9204 119.1649 14.87683645  2032
TWILIGHT S              
1 67379U 26004S   26025.26758249  .00004695  00000+0  52111-3 0  9998
2 67379  97.7982  26.2038 0004143 236.2170 123.8652 14.87694155  2032
